{"type": "FeatureCollection", "features": [ {"type": "Feature", "properties": {"norad_id": 33939, "name": "COSMOS 2251 DEB", "group": "cosmos-2251-debris", "lat": 41.688474871957354, "lon": 114.06039758043751, "alt_km": 566.7422264330053, "timestamp": "2025-12-03T13:52:09.959849+00:00", "meta": {"OBJECT_NAME": "COSMOS 2251 DEB", "OBJECT_ID": "1993-036EU", "EPOCH": "2025-12-03T07:15:58.750848", "MEAN_MOTION": 14.98646813, "ECCENTRICITY": 0.0003138, "INCLINATION": 74.0071, "RA_OF_ASC_NODE": 99.8199, "ARG_OF_PERICENTER": 119.8162, "MEAN_ANOMALY": 240.3336, "EPHEMERIS_TYPE": 0, "CLASSIFICATION_TYPE": "U", "NORAD_CAT_ID": 33939, "ELEMENT_SET_NO": 999, "REV_AT_EPOCH": 88611, "BSTAR": 0.0046169371, "MEAN_MOTION_DOT": 0.00055865, "MEAN_MOTION_DDOT": 0}, "tle": {"line1": "1 33939U 93036EU  25337.30276332  .00055865  00000+0  46169-2 0  9990", "line2": "2 33939  74.0071  99.8199 0003138 119.8162 240.3336 14.98646813886111"}}, "geometry": {"type": "Point", "coordinates": [114.06039758043751, 41.688474871957354]}}, {"type": "Feature", "properties": {"norad_id": 33940, "name": "COSMOS 2251 DEB", "group": "cosmos-2251-debris", "lat": 66.36525470580976, "lon": -158.21484243252044, "alt_km": 698.8392314213424, "timestamp": "2025-12-03T13:52:09.959860+00:00", "meta": {"OBJECT_NAME": "COSMOS 2251 DEB", "OBJECT_ID": "1993-036EV", "EPOCH": "2025-12-02T19:29:35.762208", "MEAN_MOTION": 14.58634449, "ECCENTRICITY": 0.00117342, "INCLINATION": 74.0384, "RA_OF_ASC_NODE": 162.3964, "ARG_OF_PERICENTER": 241.4758, "MEAN_ANOMALY": 131.9532, "EPHEMERIS_TYPE": 0, "CLASSIFICATION_TYPE": "U", "NORAD_CAT_ID": 33940, "ELEMENT_SET_NO": 999, "REV_AT_EPOCH": 88449, "BSTAR": 0.0013036681, "MEAN_MOTION_DOT": 6.054e-05, "MEAN_MOTION_DDOT": 0}, "tle": {"line1": "1 33940U 93036EV  25336.81221947  .00006054  00000+0  13037-2 0  9993", "line2": "2 33940  74.0384 162.3964 0011734 241.4758 131.9532 14.58634449884490"}}, "geometry": {"type": "Point", "coordinates": [-158.21484243252044, 66.36525470580976]}}, {"type": "Feature", "properties": {"norad_id": 33942, "name": "COSMOS 2251 DEB", "group": "cosmos-2251-debris", "lat": -50.32090175841475, "lon": 131.88631798175905, "alt_km": 783.2574398939769, "timestamp": "2025-12-03T13:52:09.959870+00:00", "meta": {"OBJECT_NAME": "COSMOS 2251 DEB", "OBJECT_ID": "1993-036EX", "EPOCH": "2025-12-03T08:31:41.486592", "MEAN_MOTION": 14.3796492, "ECCENTRICITY": 0.00198854, "INCLINATION": 74.0361, "RA_OF_ASC_NODE": 292.1115, "ARG_OF_PERICENTER": 17.5353, "MEAN_ANOMALY": 144.0923, "EPHEMERIS_TYPE": 0, "CLASSIFICATION_TYPE": "U", "NORAD_CAT_ID": 33942, "ELEMENT_SET_NO": 999, "REV_AT_EPOCH": 87999, "BSTAR": 0.00037390827, "MEAN_MOTION_DOT": 1.106e-05, "MEAN_MOTION_DDOT": 0}, "tle": {"line1": "1 33942U 93036EX  25337.35534128  .00001106  00000+0  37391-3 0  9996", "line2": "2 33942  74.0361 292.1115 0019885  17.5353 144.0923 14.37964920879990"}}, "geometry": {"type": "Point", "coordinates": [131.88631798175905, -50.32090175841475]}}, {"type": "Feature", "properties": {"norad_id": 33944, "name": "COSMOS 2251 DEB", "group": "cosmos-2251-debris", "lat": 47.11433781678991, "lon": 127.83681476948621, "alt_km": 725.1948507552033, "timestamp": "2025-12-03T13:52:09.959881+00:00", "meta": {"OBJECT_NAME": "COSMOS 2251 DEB", "OBJECT_ID": "1993-036EZ", "EPOCH": "2025-12-03T08:50:52.211904", "MEAN_MOTION": 14.37311087, "ECCENTRICITY": 0.01119211, "INCLINATION": 74.04, "RA_OF_ASC_NODE": 326.1673, "ARG_OF_PERICENTER": 68.2517, "MEAN_ANOMALY": 58.6907, "EPHEMERIS_TYPE": 0, "CLASSIFICATION_TYPE": "U", "NORAD_CAT_ID": 33944, "ELEMENT_SET_NO": 999, "REV_AT_EPOCH": 87893, "BSTAR": 0.00041144712, "MEAN_MOTION_DOT": 1.293e-05, "MEAN_MOTION_DDOT": 0}, "tle": {"line1": "1 33944U 93036EZ  25337.36865986  .00001293  00000+0  41145-3 0  9997", "line2": "2 33944  74.0400 326.1673 0111921  68.2517  58.6907 14.37311087878937"}}, "geometry": {"type": "Point", "coordinates": [127.83681476948621, 47.11433781678991]}}, {"type": "Feature", "properties": {"norad_id": 33945, "name": "COSMOS 2251 DEB", "group": "cosmos-2251-debris", "lat": 11.274838694397548, "lon": -33.671086174415215, "alt_km": 765.706539838513, "timestamp": "2025-12-03T13:52:09.959891+00:00", "meta": {"OBJECT_NAME": "COSMOS 2251 DEB", "OBJECT_ID": "1993-036FA", "EPOCH": "2025-12-03T07:07:14.047104", "MEAN_MOTION": 14.3458808, "ECCENTRICITY": 0.00215607, "INCLINATION": 74.0293, "RA_OF_ASC_NODE": 323.571, "ARG_OF_PERICENTER": 52.8613, "MEAN_ANOMALY": 307.4504, "EPHEMERIS_TYPE": 0, "CLASSIFICATION_TYPE": "U", "NORAD_CAT_ID": 33945, "ELEMENT_SET_NO": 999, "REV_AT_EPOCH": 87880, "BSTAR": 0.0002029196, "MEAN_MOTION_DOT": 5.49e-06, "MEAN_MOTION_DDOT": 0}, "tle": {"line1": "1 33945U 93036FA  25337.29669036  .00000549  00000+0  20292-3 0  9991", "line2": "2 33945  74.0293 323.5710 0021560  52.8613 307.4504 14.34588080878806"}}, "geometry": {"type": "Point", "coordinates": [-33.671086174415215, 11.274838694397548]}}, {"type": "Feature", "properties": {"norad_id": 33948, "name": "COSMOS 2251 DEB", "group": "cosmos-2251-debris", "lat": -7.13252065610349, "lon": 143.9980041713973, "alt_km": 789.8857731588714, "timestamp": "2025-12-03T13:52:09.959902+00:00", "meta": {"OBJECT_NAME": "COSMOS 2251 DEB", "OBJECT_ID": "1993-036FD", "EPOCH": "2025-12-03T01:17:39.145056", "MEAN_MOTION": 14.35609945, "ECCENTRICITY": 0.00223303, "INCLINATION": 74.0351, "RA_OF_ASC_NODE": 322.9061, "ARG_OF_PERICENTER": 41.5755, "MEAN_ANOMALY": 318.709, "EPHEMERIS_TYPE": 0, "CLASSIFICATION_TYPE": "U", "NORAD_CAT_ID": 33948, "ELEMENT_SET_NO": 999, "REV_AT_EPOCH": 87884, "BSTAR": 0.0002603855, "MEAN_MOTION_DOT": 7.27e-06, "MEAN_MOTION_DDOT": 0}, "tle": {"line1": "1 33948U 93036FD  25337.05392529  .00000727  00000+0  26039-3 0  9991", "line2": "2 33948  74.0351 322.9061 0022330  41.5755 318.7090 14.35609945878848"}}, "geometry": {"type": "Point", "coordinates": [143.9980041713973, -7.13252065610349]}}, {"type": "Feature", "properties": {"norad_id": 33971, "name": "COSMOS 2251 DEB", "group": "cosmos-2251-debris", "lat": 55.998969290335886, "lon": 65.53429574109387, "alt_km": 757.6483305359898, "timestamp": "2025-12-03T13:52:09.959912+00:00", "meta": {"OBJECT_NAME": "COSMOS 2251 DEB", "OBJECT_ID": "1993-036FE", "EPOCH": "2025-12-03T07:24:51.540768", "MEAN_MOTION": 14.39695284, "ECCENTRICITY": 0.00180905, "INCLINATION": 74.0248, "RA_OF_ASC_NODE": 271.1617, "ARG_OF_PERICENTER": 13.4832, "MEAN_ANOMALY": 153.2331, "EPHEMERIS_TYPE": 0, "CLASSIFICATION_TYPE": "U", "NORAD_CAT_ID": 33971, "ELEMENT_SET_NO": 999, "REV_AT_EPOCH": 88003, "BSTAR": 0.00048149813, "MEAN_MOTION_DOT": 1.484e-05, "MEAN_MOTION_DDOT": 0}, "tle": {"line1": "1 33971U 93036FE  25337.30892987  .00001484  00000+0  48150-3 0  9997", "line2": "2 33971  74.0248 271.1617 0018090  13.4832 153.2331 14.39695284880032"}}, "geometry": {"type": "Point", "coordinates": [65.53429574109387, 55.998969290335886]}}, {"type": "Feature", "properties": {"norad_id": 33972, "name": "COSMOS 2251 DEB", "group": "cosmos-2251-debris", "lat": 4.4823901187169275, "lon": 26.245426005729126, "alt_km": 854.6424342095825, "timestamp": "2025-12-03T13:52:09.959923+00:00", "meta": {"OBJECT_NAME": "COSMOS 2251 DEB", "OBJECT_ID": "1993-036FF", "EPOCH": "2025-12-02T23:58:48.154080", "MEAN_MOTION": 14.36111231, "ECCENTRICITY": 0.01229339, "INCLINATION": 73.9949, "RA_OF_ASC_NODE": 208.5999, "ARG_OF_PERICENTER": 18.5394, "MEAN_ANOMALY": 45.3363, "EPHEMERIS_TYPE": 0, "CLASSIFICATION_TYPE": "U", "NORAD_CAT_ID": 33972, "ELEMENT_SET_NO": 999, "REV_AT_EPOCH": 86934, "BSTAR": 0.0015103447, "MEAN_MOTION_DOT": 4.77e-05, "MEAN_MOTION_DDOT": 0}, "tle": {"line1": "1 33972U 93036FF  25336.99916845  .00004770  00000+0  15103-2 0  9994", "line2": "2 33972  73.9949 208.5999 0122933  18.5394  45.3363 14.36111231869346"}}, "geometry": {"type": "Point", "coordinates": [26.245426005729126, 4.4823901187169275]}}, {"type": "Feature", "properties": {"norad_id": 33973, "name": "COSMOS 2251 DEB", "group": "cosmos-2251-debris", "lat": -17.04910601100861, "lon": 114.95311941336338, "alt_km": 720.44746366257, "timestamp": "2025-12-03T13:52:09.959933+00:00", "meta": {"OBJECT_NAME": "COSMOS 2251 DEB", "OBJECT_ID": "1993-036FG", "EPOCH": "2025-12-02T20:15:18.443808", "MEAN_MOTION": 14.4537252, "ECCENTRICITY": 0.00471121, "INCLINATION": 74.007, "RA_OF_ASC_NODE": 121.3688, "ARG_OF_PERICENTER": 301.6494, "MEAN_ANOMALY": 183.0021, "EPHEMERIS_TYPE": 0, "CLASSIFICATION_TYPE": "U", "NORAD_CAT_ID": 33973, "ELEMENT_SET_NO": 999, "REV_AT_EPOCH": 88457, "BSTAR": 0.00019889847, "MEAN_MOTION_DOT": 6.81e-06, "MEAN_MOTION_DDOT": 0}, "tle": {"line1": "1 33973U 93036FG  25336.84396347  .00000681  00000+0  19890-3 0  9993", "line2": "2 33973  74.0070 121.3688 0047112 301.6494 183.0021 14.45372520884576"}}, "geometry": {"type": "Point", "coordinates": [114.95311941336338, -17.04910601100861]}}, {"type": "Feature", "properties": {"norad_id": 33975, "name": "COSMOS 2251 DEB", "group": "cosmos-2251-debris", "lat": -34.631147545722115, "lon": 88.97605241526368, "alt_km": 892.7753813016334, "timestamp": "2025-12-03T13:52:09.959943+00:00", "meta": {"OBJECT_NAME": "COSMOS 2251 DEB", "OBJECT_ID": "1993-036FJ", "EPOCH": "2025-12-02T17:28:18.663456", "MEAN_MOTION": 14.00486492, "ECCENTRICITY": 0.01914895, "INCLINATION": 73.8011, "RA_OF_ASC_NODE": 102.0511, "ARG_OF_PERICENTER": 236.4744, "MEAN_ANOMALY": 121.797, "EPHEMERIS_TYPE": 0, "CLASSIFICATION_TYPE": "U", "NORAD_CAT_ID": 33975, "ELEMENT_SET_NO": 999, "REV_AT_EPOCH": 85689, "BSTAR": 0.00092188562, "MEAN_MOTION_DOT": 1.577e-05, "MEAN_MOTION_DDOT": 0}, "tle": {"line1": "1 33975U 93036FJ  25336.72799379  .00001577  00000+0  92189-3 0  9991", "line2": "2 33975  73.8011 102.0511 0191489 236.4744 121.7970 14.00486492856892"}}, "geometry": {"type": "Point", "coordinates": [88.97605241526368, -34.631147545722115]}}]}